     2.100          NAVIGATION                              RINEX VERSION / TYPE
fic2rin                                 06/18/2013 00:38:07 PGM / RUN BY / DATE
                                                            END OF HEADER
12 13  6 18  0  0  0.0  .139927025884D-03  .204636307899D-11  .000000000000D+00
     .340000000000D+02 -.184062500000D+02  .405481175633D-08  .484004900221D+00
    -.918284058571D-06  .451799435541D-02  .934861600399D-05  .515355088234D+04
     .172800000000D+06  .763684511185D-07  .238024079650D+01  .409781932831D-07
     .984412030632D+00  .217187500000D+03  .287405596831D+00 -.778996734055D-08
     .342514267094D-09  .100000000000D+01  .174500000000D+04  .000000000000D+00
     .240000000000D+01  .000000000000D+00 -.121071934700D-07  .340000000000D+02
     .165606000000D+06  .400000000000D+01
13 13  6 18  0  0  0.0  .108516775072D-03 -.363797880709D-11  .000000000000D+00
     .500000000000D+02  .290937500000D+02  .417267380861D-08 -.312473742058D+01
     .157020986080D-05  .516948243603D-02  .427290797234D-05  .515373900414D+04
     .172800000000D+06 -.745058059692D-08  .353748482610D+00  .186264514923D-07
     .981622512106D+00  .308843750000D+03  .214413682843D+01 -.803140596887D-08
    -.871464871438D-10  .100000000000D+01  .174500000000D+04  .000000000000D+00
     .240000000000D+01  .000000000000D+00 -.111758708954D-07  .500000000000D+02
     .165606000000D+06  .400000000000D+01
14 13  6 18  0  0  0.0  .220237299800D-03 -.341060513165D-12  .000000000000D+00
     .520000000000D+02  .310312500000D+02  .418696011798D-08 -.291512374048D+01
     .166706740856D-05  .701067480259D-02  .436045229435D-05  .515375740623D+04
     .172800000000D+06  .614672899246D-07  .324357030589D+00 -.689178705215D-07
     .974300905555D+00  .301750000000D+03 -.203583541429D+01 -.799426156451D-08
     .160720980388D-10  .100000000000D+01  .174500000000D+04  .000000000000D+00
     .240000000000D+01  .000000000000D+00 -.884756445885D-08  .520000000000D+02
     .165606000000D+06  .400000000000D+01
15 13  6 18  0  0  0.0 -.123770441860D-03 -.159161572810D-11  .000000000000D+00
     .680000000000D+02  .527812500000D+02  .510664128354D-08  .284147182632D+01
     .271201133728D-05  .542385852896D-02  .404566526413D-05  .515377260971D+04
     .172800000000D+06 -.521540641785D-07  .223801129850D+00  .298023223877D-07
     .940941062955D+00  .291718750000D+03  .166084502909D+00 -.850035407387D-08
     .228580949885D-10  .100000000000D+01  .174500000000D+04  .000000000000D+00
     .240000000000D+01  .000000000000D+00 -.102445483208D-07  .680000000000D+02
     .165606000000D+06  .400000000000D+01
16 13  6 18  0  0  0.0 -.251218210906D-03  .341060513165D-12  .000000000000D+00
     .600000000000D+01 -.675000000000D+01  .397123684653D-08 -.171700300898D+01
    -.696629285812D-06  .714089942630D-02  .896304845810D-05  .515365945053D+04
     .172800000000D+06 -.316649675369D-07  .239863423668D+01 -.838190317154D-07
     .985112527011D+00  .219531250000D+03  .114058163552D+00 -.776032324861D-08
     .465733685392D-09  .100000000000D+01  .174500000000D+04  .000000000000D+00
     .240000000000D+01  .000000000000D+00 -.102445483208D-07  .600000000000D+01
     .165606000000D+06  .400000000000D+01
17 13  6 18  0  0  0.0  .794371590018D-05 -.386535248253D-11  .000000000000D+00
     .840000000000D+02 -.175000000000D+02  .483984445609D-08 -.271706318527D+01
    -.843778252602D-06  .834633200429D-02  .592321157455D-05  .515363687134D+04
     .172800000000D+06  .143423676491D-06 -.284843495065D+01 -.132247805595D-06
     .965836474715D+00  .265843750000D+03 -.219045602885D+01 -.811426656320D-08
     .168221292806D-09  .100000000000D+01  .174500000000D+04  .000000000000D+00
     .240000000000D+01  .000000000000D+00 -.102445483208D-07  .840000000000D+02
     .165606000000D+06  .400000000000D+01
18 13  6 18  0  0  0.0  .259220134467D-03  .181898940355D-11  .000000000000D+00
     .550000000000D+02  .637500000000D+02  .516485799421D-08 -.122204086405D+01
     .337511301041D-05  .144458170980D-01  .873580574989D-05  .515361329460D+04
     .172800000000D+06  .268220901489D-06 -.794114750113D+00  .279396772385D-06
     .927175207175D+00  .195000000000D+03 -.209969512830D+01 -.837892044424D-08
    -.121790787361D-09  .100000000000D+01  .174500000000D+04  .000000000000D+00
     .240000000000D+01  .000000000000D+00 -.111758708954D-07  .550000000000D+02
     .165606000000D+06  .400000000000D+01
19 13  6 18  0  0  0.0 -.381879974157D-03 -.306954461848D-11  .000000000000D+00
     .280000000000D+02 -.247187500000D+02  .484877339945D-08  .283594526121D+01
    -.127218663692D-05  .938039028551D-02  .622123479843D-05  .515370703506D+04
     .172800000000D+06 -.152736902237D-06 -.279657199583D+01 -.987201929092D-07
     .963038823827D+00  .261812500000D+03  .320063819531D+00 -.804926385558D-08
     .116790579082D-09  .100000000000D+01  .174500000000D+04  .000000000000D+00
     .240000000000D+01  .000000000000D+00 -.149011611938D-07  .280000000000D+02
     .165606000000D+06  .400000000000D+01
20 13  6 18  0  0  0.0  .104194972664D-03  .216004991671D-11  .000000000000D+00
     .400000000000D+02  .775312500000D+02  .520985986872D-08 -.710416636642D+00
     .395253300667D-05  .537917227484D-02  .952370464802D-05  .515373213577D+04
     .172800000000D+06 -.204890966415D-07 -.847536328570D+00  .949949026108D-07
     .927903209339D+00  .177312500000D+03  .129238522723D+01 -.848499629130D-08
    -.546451333320D-10  .100000000000D+01  .174500000000D+04  .000000000000D+00
     .240000000000D+01  .000000000000D+00 -.791624188423D-08  .400000000000D+02
     .165606000000D+06  .400000000000D+01
22 13  6 18  0  0  0.0  .172105617821D-03  .170530256582D-11  .000000000000D+00
     .710000000000D+02  .640625000000D+02  .514199989922D-08 -.180366340429D+01
     .325031578541D-05  .671030685771D-02  .904873013496D-05  .515365133858D+04
     .172800000000D+06  .152736902237D-06 -.791550866219D+00 -.391155481339D-07
     .924925003639D+00  .187593750000D+03 -.203808839591D+01 -.824605776712D-08
    -.882179603464D-10  .100000000000D+01  .174500000000D+04  .000000000000D+00
     .340000000000D+01  .000000000000D+00 -.172294676304D-07  .710000000000D+02
     .165606000000D+06  .400000000000D+01
23 13  6 18  0  0  0.0  .752080231905D-04 -.352429196937D-11  .000000000000D+00
     .200000000000D+02  .361875000000D+02  .477519890620D-08  .236012002459D+01
     .184774398804D-05  .866148120258D-02  .427104532719D-05  .515369832230D+04
     .172800000000D+06 -.189989805222D-06  .265275066594D+00 -.149011611938D-07
     .955880557931D+00  .296843750000D+03 -.287766138697D+01 -.836677708128D-08
    -.675028117631D-10  .100000000000D+01  .174500000000D+04  .000000000000D+00
     .240000000000D+01  .000000000000D+00 -.200234353542D-07  .200000000000D+02
     .165606000000D+06  .400000000000D+01
24 13  6 18  0  0  0.0 -.838376581669D-05 -.682121026330D-12  .000000000000D+00
     .410000000000D+02 -.550937500000D+02  .451161649836D-08  .142853217518D+01
    -.301375985146D-05  .949764042161D-03  .636465847492D-05  .515367811775D+04
     .172800000000D+06 -.130385160446D-07  .129192552424D+01 -.428408384323D-07
     .958720450578D+00  .254812500000D+03  .436284898686D+00 -.819462705339D-08
    -.146434671020D-09  .100000000000D+01  .174500000000D+04  .000000000000D+00
     .240000000000D+01  .000000000000D+00  .279396772385D-08  .410000000000D+02
     .165606000000D+06  .400000000000D+01
25 13  6 18  0  0  0.0  .110825523734D-03  .466116034659D-11  .000000000000D+00
     .800000000000D+02 -.137187500000D+02  .422696178421D-08 -.467192097683D+00
    -.586733222008D-06  .269960798323D-02  .900216400623D-05  .515376910782D+04
     .172800000000D+06  .447034835815D-07  .234174059186D+01 -.111758708954D-07
     .973212814883D+00  .216281250000D+03  .701093032550D+00 -.790997233924D-08
     .343942898031D-09  .100000000000D+01  .174500000000D+04  .000000000000D+00
     .240000000000D+01  .000000000000D+00  .558793544769D-08  .800000000000D+02
     .165606000000D+06  .400000000000D+01
26 13  6 18  0  0  0.0  .586882233620D-04  .160298441187D-10  .000000000000D+00
     .590000000000D+02  .364062500000D+02  .409767068443D-08  .232933113177D+01
     .153295695782D-05  .211318072397D-01  .369735062122D-05  .515366598511D+04
     .172800000000D+06  .193715095520D-06  .346281141622D+00 -.221654772758D-06
     .979076151046D+00  .314312500000D+03  .124420312791D+01 -.784604110482D-08
    -.171435712414D-10  .100000000000D+01  .174500000000D+04  .000000000000D+00
     .240000000000D+01  .000000000000D+00 -.605359673500D-08  .590000000000D+02
     .165606000000D+06  .400000000000D+01
27 13  6 18  0  0  0.0 -.237021595240D-05 -.250111042988D-11  .000000000000D+00
     .170000000000D+02 -.177500000000D+02  .492520515456D-08  .289373416069D+01
    -.916421413422D-06  .182630727068D-03  .606477260590D-05  .515365621185D+04
     .172800000000D+06 -.335276126862D-07 -.289174616621D+01 -.149011611938D-07
     .960412865394D+00  .263968750000D+03  .778376357037D+00 -.822927135361D-08
     .148934775160D-09  .100000000000D+01  .174500000000D+04  .000000000000D+00
     .240000000000D+01  .630000000000D+02  .372529029846D-08  .170000000000D+02
     .165606000000D+06  .400000000000D+01
28 13  6 18  0  0  0.0  .268253497779D-03  .329691829393D-11  .000000000000D+00
     .610000000000D+02 -.350000000000D+01  .391444876679D-08 -.192656393333D+01
    -.167638063431D-07  .185933698667D-01  .932998955250D-05  .515364797020D+04
     .172800000000D+06  .348314642906D-06  .240485451168D+01  .158324837685D-06
     .983563023199D+00  .204000000000D+03 -.176912271177D+01 -.751674167389D-08
     .507163982558D-09  .100000000000D+01  .174500000000D+04  .000000000000D+00
     .240000000000D+01  .000000000000D+00 -.107102096081D-07  .610000000000D+02
     .165606000000D+06  .400000000000D+01
